STARLINK-30405          
1 57851U 23141M   26169.01162309 -.00001041  00000+0 -21796-4 0  9999
2 57851  53.1599 177.6709 0001058  68.4158 291.6956 15.31685270155695
STARLINK-30431          
1 57852U 23141N   26169.01960663  .00002552  00000+0  98329-4 0  9991
2 57852  53.1598 177.7722 0001636  66.5753 293.5419 15.30181045155687
STARLINK-30404          
1 57853U 23141P   26169.01538694  .00000282  00000+0  21671-4 0  9991
2 57853  53.1592 177.7438 0001794  70.5151 289.6044 15.30188643155690
STARLINK-30412          
1 57854U 23141Q   26168.30747480  .00001114  00000+0  49726-4 0  9994
2 57854  53.1592 181.1459 0001140  79.0244 281.0885 15.30194927155584
STARLINK-30392          
1 57855U 23141R   26169.02277174 -.00000229  00000+0  43857-5 0  9990
2 57855  53.1594 177.7883 0001283  75.6777 284.4366 15.30192790155699
STARLINK-30291          
1 57856U 23141S   26168.99761925  .00000718  00000+0  34909-4 0  9997
2 57856  53.1574 177.6348 0001236  82.8832 277.2310 15.31703498155696
STARLINK-30424          
1 57857U 23141T   26169.11225104  .00001367  00000+0  58311-4 0  9991
2 57857  53.1576 151.6651 0001914 131.0999 229.0167 15.30190414156066
STARLINK-30290          
1 57858U 23141U   26168.31381364 -.00000274  00000+0  28623-5 0  9995
2 57858  53.1601 181.1854 0001178  81.6315 278.4820 15.30189575155589
STARLINK-30414          
1 57859U 23141V   26169.02910266  .00000159  00000+0  17484-4 0  9997
2 57859  53.1601 177.8270 0001201  84.7714 275.3424 15.30194675155693
STARLINK-30272          
1 57860U 23141W   26169.00228923  .00000849  00000+0  39116-4 0  9991
2 57860  53.1587 177.6615 0001138  86.9478 273.1654 15.31699499155695
STARLINK-30432          
1 57864U 23144A   26169.08706948  .00002140  00000+0  87256-4 0  9998
2 57864  43.0016  78.0715 0001518 283.3221  76.7461 15.27586283152950
STARLINK-30427          
1 57865U 23144B   26168.04473138  .00001031  00000+0  46974-4 0  9996
2 57865  43.0042  83.9996 0001272 271.5310  88.5396 15.27583190152795
STARLINK-30393          
1 57866U 23144C   26169.07935539  .00000600  00000+0  31343-4 0  9994
2 57866  43.0044  78.0061 0001567 269.5303  90.5369 15.27580540152959
STARLINK-30439          
1 57867U 23144D   26169.16015766  .00019200  00000+0  70497-3 0  9994
2 57867  43.0009  77.7531 0001394 274.3662  85.7031 15.27601104153019
STARLINK-30442          
1 57868U 23144E   26169.16400329 -.00005851  00000+0 -20311-3 0  9997
2 57868  43.0048  77.7369 0001847 274.8742  85.1899 15.27599498152960
STARLINK-30441          
1 57869U 23144F   26169.14858407 -.00003529  00000+0 -11870-3 0  9990
2 57869  43.0023  77.6250 0001563 262.8722  97.1952 15.27598224152961
STARLINK-30460          
1 57870U 23144G   26169.10119015  .00000900  00000+0  42227-4 0  9992
2 57870  43.0075  78.1685 0001076 261.4208  98.6522 15.27586888153009
STARLINK-30444          
1 57871U 23144H   26169.10891044  .00020972  00000+0  76922-3 0  9991
2 57871  43.0019  78.2274 0001654 277.1850  82.8813 15.27589833152710
STARLINK-30446          
1 57872U 23144J   26168.01458574 -.00001781  00000+0 -55214-4 0  9999
2 57872  43.0062  70.1409 0001784 268.8848  91.1799 15.27565267152720
STARLINK-30445          
1 57873U 23144K   26169.17044067  .00000542  00000+0  29201-4 0  9995
2 57873  43.0034  77.8293 0000883 293.2294  66.8464 15.27580419152961
STARLINK-30447          
1 57874U 23144L   26169.06200352  .00000000  00000+0  95153-5 0  9994
2 57874  43.0037  52.6075 0001237 271.2537  88.8173 15.27578484153280
STARLINK-30434          
1 57875U 23144M   26167.48194321  .00000940  00000+0  43656-4 0  9990
2 57875  43.0089  87.5152 0000601 294.1785  65.9004 15.27582998152759
STARLINK-30429          
1 57876U 23144N   26168.00889830  .00000593  00000+0  31067-4 0  9993
2 57876  43.0061  84.5939 0000873 280.2227  79.8526 15.27586139152820
STARLINK-30284          
1 57877U 23144P   26167.39024322  .00000738  00000+0  36348-4 0  9990
2 57877  43.0048  51.1521 0001083 266.6420  93.4308 15.27578640153155
STARLINK-30433          
1 57878U 23144Q   26167.50237160  .00000695  00000+0  34790-4 0  9991
2 57878  43.0051  86.8114 0000840 267.8956  92.1800 15.27580734152755
STARLINK-30358          
1 57879U 23144R   26169.07549915  .00000346  00000+0  22098-4 0  9991
2 57879  43.0053  77.9788 0001186 274.7258  85.3458 15.27576751152995
STARLINK-30436          
1 57880U 23144S   26169.14730987  .00000362  00000+0  22688-4 0  9995
2 57880  43.0078  77.6488 0001360 245.3058 114.7652 15.27575187153002
STARLINK-30339          
1 57882U 23144U   26167.49480933 -.00000385  00000+0 -44851-5 0  9990
2 57882  42.9974  87.6071 0000567 275.2037  84.8750 15.27573645152746
STARLINK-30282          
1 57883U 23144V   26169.06907295  .00001602  00000+0  67724-4 0  9995
2 57883  43.0069  77.9309 0001202 261.3704  98.7012 15.27585529152990
STARLINK-30340          
1 57884U 23144W   26169.07677915  .00001324  00000+0  57639-4 0  9995
2 57884  43.0058  77.9763 0001386 261.4321  98.6374 15.27586142152994
