OBJECT_NAME,OBJECT_ID,EPOCH,MEAN_MOTION,ECCENTRICITY,INCLINATION,RA_OF_ASC_NODE,ARG_OF_PERICENTER,MEAN_ANOMALY,EPHEMERIS_TYPE,CLASSIFICATION_TYPE,NORAD_CAT_ID,ELEMENT_SET_NO,REV_AT_EPOCH,BSTAR,MEAN_MOTION_DOT,MEAN_MOTION_DDOT
STARLINK-30405,2023-141M,2026-06-18T00:16:44.234976,15.31685270,.0001058,53.1599,177.6709,68.4158,291.6956,0,U,57851,999,15569,-.21796403E-4,-.1041E-4,0
STARLINK-30431,2023-141N,2026-06-18T00:28:14.012832,15.30181045,.00016367,53.1598,177.7722,66.5753,293.5419,0,U,57852,999,15568,.98329381E-4,.2552E-4,0
STARLINK-30404,2023-141P,2026-06-18T00:22:09.431616,15.30188643,.00017941,53.1592,177.7438,70.5151,289.6044,0,U,57853,999,15569,.21671185E-4,.282E-5,0
STARLINK-30412,2023-141Q,2026-06-17T07:22:45.822720,15.30194927,.00011402,53.1592,181.1459,79.0244,281.0885,0,U,57854,999,15558,.49726122E-4,.1114E-4,0
STARLINK-30392,2023-141R,2026-06-18T00:32:47.478336,15.30192790,.00012833,53.1594,177.7883,75.6777,284.4366,0,U,57855,999,15569,.4385681E-5,-.229E-5,0
STARLINK-30291,2023-141S,2026-06-17T23:56:34.303200,15.31703498,.00012366,53.1574,177.6348,82.8832,277.2310,0,U,57856,999,15569,.34908897E-4,.718E-5,0
STARLINK-30424,2023-141T,2026-06-18T02:41:38.489856,15.30190414,.00019141,53.1576,151.6651,131.0999,229.0167,0,U,57857,999,15606,.58311351E-4,.1367E-4,0
STARLINK-30290,2023-141U,2026-06-17T07:31:53.498496,15.30189575,.00011781,53.1601,181.1854,81.6315,278.4820,0,U,57858,999,15558,.2862306E-5,-.274E-5,0
STARLINK-30414,2023-141V,2026-06-18T00:41:54.469824,15.30194675,.00012017,53.1601,177.8270,84.7714,275.3424,0,U,57859,999,15569,.17484459E-4,.159E-5,0
STARLINK-30272,2023-141W,2026-06-18T00:03:17.789472,15.31699499,.00011389,53.1587,177.6615,86.9478,273.1654,0,U,57860,999,15569,.39116103E-4,.849E-5,0
STARLINK-30432,2023-144A,2026-06-18T02:05:22.803072,15.27586283,.00015185,43.0016,78.0715,283.3221,76.7461,0,U,57864,999,15295,.87256293E-4,.214E-4,0
STARLINK-30427,2023-144B,2026-06-17T01:04:24.791232,15.27583190,.00012721,43.0042,83.9996,271.5310,88.5396,0,U,57865,999,15279,.46974325E-4,.1031E-4,0
STARLINK-30393,2023-144C,2026-06-18T01:54:16.305696,15.27580540,.00015675,43.0044,78.0061,269.5303,90.5369,0,U,57866,999,15295,.31342535E-4,.6E-5,0
STARLINK-30439,2023-144D,2026-06-18T03:50:37.621824,15.27601104,.00013949,43.0009,77.7531,274.3662,85.7031,0,U,57867,999,15301,.70496544E-3,.192E-3,0
STARLINK-30442,2023-144E,2026-06-18T03:56:09.884256,15.27599498,.00018474,43.0048,77.7369,274.8742,85.1899,0,U,57868,999,15296,-.20310806E-3,-.5851E-4,0
STARLINK-30441,2023-144F,2026-06-18T03:33:57.663648,15.27598224,.0001563,43.0023,77.6250,262.8722,97.1952,0,U,57869,999,15296,-.11870456E-3,-.3529E-4,0
STARLINK-30460,2023-144G,2026-06-18T02:25:42.828960,15.27586888,.00010761,43.0075,78.1685,261.4208,98.6522,0,U,57870,999,15300,.42226887E-4,.9E-5,0
STARLINK-30444,2023-144H,2026-06-18T02:36:49.862016,15.27589833,.00016541,43.0019,78.2274,277.1850,82.8813,0,U,57871,999,15271,.76921521E-3,.20972E-3,0
STARLINK-30446,2023-144J,2026-06-17T00:21:00.207936,15.27565267,.00017841,43.0062,70.1409,268.8848,91.1799,0,U,57872,999,15272,-.55213707E-4,-.1781E-4,0
STARLINK-30445,2023-144K,2026-06-18T04:05:26.073888,15.27580419,.00008831,43.0034,77.8293,293.2294,66.8464,0,U,57873,999,15296,.29200934E-4,.542E-5,0
STARLINK-30447,2023-144L,2026-06-18T01:29:17.104128,15.27578484,.00012379,43.0037,52.6075,271.2537,88.8173,0,U,57874,999,15328,.9515323E-5,0,0
STARLINK-30434,2023-144M,2026-06-16T11:33:59.893344,15.27582998,.00006014,43.0089,87.5152,294.1785,65.9004,0,U,57875,999,15275,.43656152E-4,.94E-5,0
STARLINK-30429,2023-144N,2026-06-17T00:12:48.813120,15.27586139,.00008737,43.0061,84.5939,280.2227,79.8526,0,U,57876,999,15282,.31066908E-4,.593E-5,0
STARLINK-30284,2023-144P,2026-06-16T09:21:57.014208,15.27578640,.00010839,43.0048,51.1521,266.6420,93.4308,0,U,57877,999,15315,.36347678E-4,.738E-5,0
STARLINK-30433,2023-144Q,2026-06-16T12:03:24.906240,15.27580734,.00008401,43.0051,86.8114,267.8956,92.1800,0,U,57878,999,15275,.34790412E-4,.695E-5,0
STARLINK-30358,2023-144R,2026-06-18T01:48:43.126560,15.27576751,.00011862,43.0053,77.9788,274.7258,85.3458,0,U,57879,999,15299,.22098059E-4,.346E-5,0
STARLINK-30436,2023-144S,2026-06-18T03:32:07.572768,15.27575187,.00013607,43.0078,77.6488,245.3058,114.7652,0,U,57880,999,15300,.22687648E-4,.362E-5,0
STARLINK-30339,2023-144U,2026-06-16T11:52:31.526112,15.27573645,.00005675,42.9974,87.6071,275.2037,84.8750,0,U,57882,999,15274,-.4485054E-5,-.385E-5,0
STARLINK-30282,2023-144V,2026-06-18T01:39:27.902880,15.27585529,.00012027,43.0069,77.9309,261.3704,98.7012,0,U,57883,999,15299,.67723634E-4,.1602E-4,0
STARLINK-30340,2023-144W,2026-06-18T01:50:33.718560,15.27586142,.00013869,43.0058,77.9763,261.4321,98.6374,0,U,57884,999,15299,.57639109E-4,.1324E-4,0
